{
  "norad_id": 68590,
  "name": "KUIPER-00286",
  "history": [
    {
      "epoch": "2026-04-09T12:03:04.845888Z",
      "apogee_km": 456.070992521838,
      "perigee_km": 450.223413244169,
      "latitude_deg": 1.2476032842597398e-05,
      "longitude_deg": 130.56170387655402,
      "height_km": 454.65823660229825,
      "semi_major_axis_km": 6831.284202883003,
      "eccentricity": 0.000428,
      "inclination_deg": 51.8723,
      "raan_deg": 149.0813,
      "arg_perigee_deg": 104.9491,
      "mean_anomaly_deg": 255.197,
      "mean_motion_rev_day": 15.37620751
    }
  ]
}